start=new Date('2022-07-05T00:00:00.000Z').valueOf();
sats=[{"MEAN_MOTION_DDOT":"0.0000000000000","EPHEMERIS_TYPE":"0","GP_ID":"207417419","OBJECT_TYPE":"PAYLOAD","MEAN_ELEMENT_THEORY":"SGP4","CENTER_NAME":"EARTH","COUNTRY_CODE":"US","FILE":"3507746","MEAN_MOTION_DOT":"-0.00002145","LAUNCH_DATE":"2021-05-26","ELEMENT_SET_NO":"999","PERIOD":"95.592","TLE_LINE2":"2 48657  53.0553  34.2413 0001476  81.8826 278.2331 15.06397882 61160","CLASSIFICATION_TYPE":"U","BSTAR":"-0.00012512000000","EPOCH":"2022-07-04T20:59:26.030976","SEMIMAJOR_AXIS":"6925.355","OBJECT_NAME":"STARLINK-2734","REV_AT_EPOCH":"6116","MEAN_ANOMALY":"278.2331","INCLINATION":"53.0553","APOAPSIS":"548.242","RCS_SIZE":"LARGE","ARG_OF_PERICENTER":"81.8826","RA_OF_ASC_NODE":"34.2413","PERIAPSIS":"546.198","TIME_SYSTEM":"UTC","NORAD_CAT_ID":"48657","DECAY_DATE":null,"REF_FRAME":"TEME","SITE":"AFETR","MEAN_MOTION":"15.06397882","TLE_LINE1":"1 48657U 21044V   22185.87460684 -.00002145  00000-0 -12512-3 0  9990","OBJECT_ID":"2021-044V","ECCENTRICITY":"0.00014760"},{"INCLINATION":"53.0556","APOAPSIS":"548.413","RCS_SIZE":"LARGE","ARG_OF_PERICENTER":"78.2368","PERIAPSIS":"546.015","RA_OF_ASC_NODE":"34.2658","TIME_SYSTEM":"UTC","NORAD_CAT_ID":"48658","DECAY_DATE":null,"REF_FRAME":"TEME","SITE":"AFETR","MEAN_MOTION":"15.06399860","OBJECT_ID":"2021-044W","TLE_LINE1":"1 48658U 21044W   22185.87092272 -.00002616  00000-0 -15678-3 0  9994","ECCENTRICITY":"0.00017320","MEAN_MOTION_DDOT":"0.0000000000000","EPHEMERIS_TYPE":"0","GP_ID":"207417661","OBJECT_TYPE":"PAYLOAD","MEAN_ELEMENT_THEORY":"SGP4","CENTER_NAME":"EARTH","COUNTRY_CODE":"US","FILE":"3507746","MEAN_MOTION_DOT":"-0.00002616","LAUNCH_DATE":"2021-05-26","ELEMENT_SET_NO":"999","BSTAR":"-0.00015678000000","TLE_LINE2":"2 48658  53.0556  34.2658 0001732  78.2368 281.8816 15.06399860 61167","PERIOD":"95.592","CLASSIFICATION_TYPE":"U","EPOCH":"2022-07-04T20:54:07.723008","SEMIMAJOR_AXIS":"6925.349","OBJECT_NAME":"STARLINK-2647","REV_AT_EPOCH":"6116","MEAN_ANOMALY":"281.8816"},{"COUNTRY_CODE":"US","MEAN_MOTION_DOT":"-0.00003307","FILE":"3507746","LAUNCH_DATE":"2021-05-26","ELEMENT_SET_NO":"999","TLE_LINE2":"2 48659  53.0552  34.2764 0001471  75.1854 284.9298 15.06386439 61164","BSTAR":"-0.00020326000000","PERIOD":"95.593","CLASSIFICATION_TYPE":"U","EPOCH":"2022-07-04T20:48:49.046112","SEMIMAJOR_AXIS":"6925.390","OBJECT_NAME":"STARLINK-2717","REV_AT_EPOCH":"6116","MEAN_ANOMALY":"284.9298","MEAN_MOTION_DDOT":"0.0000000000000","EPHEMERIS_TYPE":"0","GP_ID":"207416422","OBJECT_TYPE":"PAYLOAD","MEAN_ELEMENT_THEORY":"SGP4","CENTER_NAME":"EARTH","REF_FRAME":"TEME","SITE":"AFETR","MEAN_MOTION":"15.06386439","OBJECT_ID":"2021-044X","TLE_LINE1":"1 48659U 21044X   22185.86723433 -.00003307  00000-0 -20326-3 0  9998","ECCENTRICITY":"0.00014710","INCLINATION":"53.0552","RCS_SIZE":"LARGE","APOAPSIS":"548.274","ARG_OF_PERICENTER":"75.1854","PERIAPSIS":"546.236","RA_OF_ASC_NODE":"34.2764","TIME_SYSTEM":"UTC","NORAD_CAT_ID":"48659","DECAY_DATE":null},{"INCLINATION":"53.0559","ARG_OF_PERICENTER":"88.4982","RCS_SIZE":"LARGE","APOAPSIS":"548.278","RA_OF_ASC_NODE":"34.2966","PERIAPSIS":"546.229","TIME_SYSTEM":"UTC","NORAD_CAT_ID":"48660","DECAY_DATE":null,"REF_FRAME":"TEME","SITE":"AFETR","MEAN_MOTION":"15.06386943","TLE_LINE1":"1 48660U 21044Y   22185.86355748 -.00003184  00000-0 -19500-3 0  9995","OBJECT_ID":"2021-044Y","ECCENTRICITY":"0.00014790","MEAN_MOTION_DDOT":"0.0000000000000","EPHEMERIS_TYPE":"0","GP_ID":"207416172","OBJECT_TYPE":"PAYLOAD","MEAN_ELEMENT_THEORY":"SGP4","CENTER_NAME":"EARTH","FILE":"3507746","MEAN_MOTION_DOT":"-0.00003184","COUNTRY_CODE":"US","LAUNCH_DATE":"2021-05-26","CLASSIFICATION_TYPE":"U","TLE_LINE2":"2 48660  53.0559  34.2966 0001479  88.4982 271.6177 15.06386943 61163","PERIOD":"95.593","BSTAR":"-0.00019500000000","ELEMENT_SET_NO":"999","EPOCH":"2022-07-04T20:43:31.366272","OBJECT_NAME":"STARLINK-2688","SEMIMAJOR_AXIS":"6925.389","MEAN_ANOMALY":"271.6177","REV_AT_EPOCH":"6116"},{"DECAY_DATE":null,"NORAD_CAT_ID":"48661","RA_OF_ASC_NODE":"24.2859","PERIAPSIS":"546.142","TIME_SYSTEM":"UTC","INCLINATION":"53.0544","APOAPSIS":"548.407","RCS_SIZE":"LARGE","ARG_OF_PERICENTER":"64.9116","ECCENTRICITY":"0.00016350","MEAN_MOTION":"15.06380212","TLE_LINE1":"1 48661U 21044Z   22185.86448128 -.00001416  00000-0 -76222-4 0  9992","OBJECT_ID":"2021-044Z","REF_FRAME":"TEME","SITE":"AFETR","CENTER_NAME":"EARTH","OBJECT_TYPE":"PAYLOAD","MEAN_ELEMENT_THEORY":"SGP4","EPHEMERIS_TYPE":"0","GP_ID":"207416920","MEAN_MOTION_DDOT":"0.0000000000000","SEMIMAJOR_AXIS":"6925.409","OBJECT_NAME":"STARLINK-2708","REV_AT_EPOCH":"6130","MEAN_ANOMALY":"295.2042","EPOCH":"2022-07-04T20:44:51.182592","LAUNCH_DATE":"2021-05-26","ELEMENT_SET_NO":"999","TLE_LINE2":"2 48661  53.0544  24.2859 0001635  64.9116 295.2042 15.06380212 61302","PERIOD":"95.593","CLASSIFICATION_TYPE":"U","BSTAR":"-0.00007622200000","COUNTRY_CODE":"US","MEAN_MOTION_DOT":"-0.00001416","FILE":"3507746"},{"TIME_SYSTEM":"UTC","RA_OF_ASC_NODE":"24.3130","PERIAPSIS":"546.239","APOAPSIS":"548.265","RCS_SIZE":"LARGE","ARG_OF_PERICENTER":"86.3371","INCLINATION":"53.0562","DECAY_DATE":null,"NORAD_CAT_ID":"48662","OBJECT_ID":"2021-044AA","TLE_LINE1":"1 48662U 21044AA  22185.86079040 -.00001203  00000-0 -61893-4 0  9998","MEAN_MOTION":"15.06387359","SITE":"AFETR","REF_FRAME":"TEME","ECCENTRICITY":"0.00014630","GP_ID":"207417162","EPHEMERIS_TYPE":"0","MEAN_MOTION_DDOT":"0.0000000000000","CENTER_NAME":"EARTH","MEAN_ELEMENT_THEORY":"SGP4","OBJECT_TYPE":"PAYLOAD","TLE_LINE2":"2 48662  53.0562  24.3130 0001463  86.3371 273.7785 15.06387359 61300","PERIOD":"95.593","CLASSIFICATION_TYPE":"U","BSTAR":"-0.00006189300000","ELEMENT_SET_NO":"999","LAUNCH_DATE":"2021-05-26","FILE":"3507746","MEAN_MOTION_DOT":"-0.00001203","COUNTRY_CODE":"US","MEAN_ANOMALY":"273.7785","REV_AT_EPOCH":"6130","OBJECT_NAME":"STARLINK-2726","SEMIMAJOR_AXIS":"6925.387","EPOCH":"2022-07-04T20:39:32.290560"},{"REV_AT_EPOCH":"6130","MEAN_ANOMALY":"274.8531","SEMIMAJOR_AXIS":"6925.399","OBJECT_NAME":"STARLINK-2667","EPOCH":"2022-07-04T20:34:14.382624","ELEMENT_SET_NO":"999","PERIOD":"95.593","TLE_LINE2":"2 48663  53.0554  24.3277 0001483  85.2627 274.8531 15.06383495 61306","BSTAR":"-0.00021600000000","CLASSIFICATION_TYPE":"U","LAUNCH_DATE":"2021-05-26","COUNTRY_CODE":"US","MEAN_MOTION_DOT":"-0.00003496","FILE":"3507746","CENTER_NAME":"EARTH","MEAN_ELEMENT_THEORY":"SGP4","OBJECT_TYPE":"PAYLOAD","GP_ID":"207415923","EPHEMERIS_TYPE":"0","MEAN_MOTION_DDOT":"0.0000000000000","ECCENTRICITY":"0.00014830","OBJECT_ID":"2021-044AB","TLE_LINE1":"1 48663U 21044AB  22185.85711091 -.00003496  00000-0 -21600-3 0  9994","MEAN_MOTION":"15.06383495","SITE":"AFETR","REF_FRAME":"TEME","DECAY_DATE":null,"NORAD_CAT_ID":"48663","TIME_SYSTEM":"UTC","RA_OF_ASC_NODE":"24.3277","PERIAPSIS":"546.237","RCS_SIZE":"LARGE","APOAPSIS":"548.291","ARG_OF_PERICENTER":"85.2627","INCLINATION":"53.0554"},{"ELEMENT_SET_NO":"999","CLASSIFICATION_TYPE":"U","TLE_LINE2":"2 48664  53.0554  24.0477 0001535  69.7290 290.3864 15.06399561 61311","PERIOD":"95.592","BSTAR":"-0.00004320900000","LAUNCH_DATE":"2021-05-26","COUNTRY_CODE":"US","FILE":"3507746","MEAN_MOTION_DOT":"-0.00000925","REV_AT_EPOCH":"6131","MEAN_ANOMALY":"290.3864","SEMIMAJOR_AXIS":"6925.350","OBJECT_NAME":"STARLINK-2709","EPOCH":"2022-07-04T22:04:26.565888","GP_ID":"207416672","EPHEMERIS_TYPE":"0","MEAN_MOTION_DDOT":"0.0000000000000","CENTER_NAME":"EARTH","MEAN_ELEMENT_THEORY":"SGP4","OBJECT_TYPE":"PAYLOAD","OBJECT_ID":"2021-044AC","TLE_LINE1":"1 48664U 21044AC  22185.91975192 -.00000925  00000-0 -43209-4 0  9990","MEAN_MOTION":"15.06399561","SITE":"AFETR","REF_FRAME":"TEME","ECCENTRICITY":"0.00015350","TIME_SYSTEM":"UTC","PERIAPSIS":"546.152","RA_OF_ASC_NODE":"24.0477","ARG_OF_PERICENTER":"69.7290","RCS_SIZE":"LARGE","APOAPSIS":"548.278","INCLINATION":"53.0554","DECAY_DATE":null,"NORAD_CAT_ID":"48664"},{"ECCENTRICITY":"0.00014350","MEAN_MOTION":"15.06388427","OBJECT_ID":"2021-044AD","TLE_LINE1":"1 48665U 21044AD  22185.86721510 -.00001364  00000-0 -72698-4 0  9990","REF_FRAME":"TEME","SITE":"AFETR","DECAY_DATE":null,"NORAD_CAT_ID":"48665","RA_OF_ASC_NODE":"24.2712","PERIAPSIS":"546.255","TIME_SYSTEM":"UTC","INCLINATION":"53.0536","ARG_OF_PERICENTER":"70.9926","RCS_SIZE":"LARGE","APOAPSIS":"548.243","SEMIMAJOR_AXIS":"6925.384","OBJECT_NAME":"STARLINK-2653","REV_AT_EPOCH":"6130","MEAN_ANOMALY":"289.1218","EPOCH":"2022-07-04T20:48:47.384640","LAUNCH_DATE":"2021-05-26","ELEMENT_SET_NO":"999","CLASSIFICATION_TYPE":"U","TLE_LINE2":"2 48665  53.0536  24.2712 0001435  70.9926 289.1218 15.06388427 61302","PERIOD":"95.593","BSTAR":"-0.00007269800000","COUNTRY_CODE":"US","FILE":"3507746","MEAN_MOTION_DOT":"-0.00001364","CENTER_NAME":"EARTH","OBJECT_TYPE":"PAYLOAD","MEAN_ELEMENT_THEORY":"SGP4","EPHEMERIS_TYPE":"0","GP_ID":"207417420","MEAN_MOTION_DDOT":"0.0000000000000"},{"ECCENTRICITY":"0.00015900","OBJECT_ID":"2021-044AE","TLE_LINE1":"1 48666U 21044AE  22185.87927485 -.00001207  00000-0 -62185-4 0  9997","MEAN_MOTION":"15.06387099","SITE":"AFETR","REF_FRAME":"TEME","DECAY_DATE":null,"NORAD_CAT_ID":"48666","TIME_SYSTEM":"UTC","RA_OF_ASC_NODE":"24.6975","PERIAPSIS":"546.152","ARG_OF_PERICENTER":"74.4653","RCS_SIZE":"LARGE","APOAPSIS":"548.354","INCLINATION":"53.0570","MEAN_ANOMALY":"285.6512","REV_AT_EPOCH":"6129","OBJECT_NAME":"STARLINK-2666","SEMIMAJOR_AXIS":"6925.388","EPOCH":"2022-07-04T21:06:09.347040","TLE_LINE2":"2 48666  53.0570  24.6975 0001590  74.4653 285.6512 15.06387099 61294","PERIOD":"95.593","CLASSIFICATION_TYPE":"U","BSTAR":"-0.00006218500000","ELEMENT_SET_NO":"999","LAUNCH_DATE":"2021-05-26","MEAN_MOTION_DOT":"-0.00001207","FILE":"3507746","COUNTRY_CODE":"US","CENTER_NAME":"EARTH","MEAN_ELEMENT_THEORY":"SGP4","OBJECT_TYPE":"PAYLOAD","GP_ID":"207417662","EPHEMERIS_TYPE":"0","MEAN_MOTION_DDOT":"0.0000000000000"}];
